[{"OBJECT_NAME":"IRIDE FM1","OBJECT_ID":"2025-276AF","EPOCH":"2026-03-09T18:13:05.170368","MEAN_MOTION":15.19690008,"ECCENTRICITY":8.247e-5,"INCLINATION":97.4265,"RA_OF_ASC_NODE":144.1318,"ARG_OF_PERICENTER":49.2046,"MEAN_ANOMALY":310.9261,"EPHEMERIS_TYPE":0,"CLASSIFICATION_TYPE":"U","NORAD_CAT_ID":66695,"ELEMENT_SET_NO":999,"REV_AT_EPOCH":1533,"BSTAR":0.00038663659,"MEAN_MOTION_DOT":8.188e-5,"MEAN_MOTION_DDOT":0},{"OBJECT_NAME":"TRANSPORTER-15 OBJECT CD","OBJECT_ID":"2025-276CD","EPOCH":"2026-03-06T20:38:14.841600","MEAN_MOTION":15.18860021,"ECCENTRICITY":0.00053081,"INCLINATION":97.4316,"RA_OF_ASC_NODE":141.2013,"ARG_OF_PERICENTER":3.5398,"MEAN_ANOMALY":356.5873,"EPHEMERIS_TYPE":0,"CLASSIFICATION_TYPE":"U","NORAD_CAT_ID":66741,"ELEMENT_SET_NO":999,"REV_AT_EPOCH":1218,"BSTAR":0.00084273364,"MEAN_MOTION_DOT":0.0001753,"MEAN_MOTION_DDOT":0}]
