IRIDE FM1               
1 66695U 25276AF  26068.75908762  .00008188  00000+0  38664-3 0  9994
2 66695  97.4265 144.1318 0000825  49.2046 310.9261 15.19690008 15332
TRANSPORTER-15 OBJECT CD
1 66741U 25276CD  26065.85989399  .00017530  00000+0  84273-3 0  9997
2 66741  97.4316 141.2013 0005308   3.5398 356.5873 15.18860021 12183
